IRIDIUM 26              
1 24903U 97043A   25158.57763199  .00000394  00000+0  12590-3 0  9994
2 24903  86.3949 114.6593 0002462  88.7256 271.4223 14.37139313455367
IRIDIUM 22              
1 24907U 97043E   25158.36014674  .00000336  00000+0  10889-3 0  9997
2 24907  86.3953 118.2813 0002352  85.8684 274.2781 14.35952817455362
DUMMY MASS 1            
1 24925U 97048A   25157.91919844  .00000388  00000+0  40189-4 0  9999
2 24925  86.3343 140.0764 0006954 162.6011 197.5454 14.86979204503849
DUMMY MASS 2            
1 24926U 97048B   25158.41808080  .00000365  00000+0  37799-4 0  9993
2 24926  86.3345 141.4508 0007276 174.0186 186.1127 14.86731818503456
IRIDIUM 29              
1 24944U 97051A   25158.52587353  .00000409  00000+0  13285-3 0  9998
2 24944  86.3961 147.9490 0002146  84.9053 275.2389 14.36460896451883
IRIDIUM 33              
1 24946U 97051C   25158.35763123  .00000286  00000+0  93565-4 0  9995
2 24946  86.3876 147.2788 0009999 105.8724 254.3575 14.34887292451330
IRIDIUM 28              
1 24948U 97051E   25158.50582084  .00000346  00000+0  10913-3 0  9991
2 24948  86.3965 145.4797 0002740  93.5645 266.5866 14.37380593452450
IRIDIUM 36              
1 24967U 97056C   25158.54027347  .00000375  00000+0  11839-3 0  9997
2 24967  86.3988 177.0479 0002540  86.7345 273.4144 14.37603369450838
